{"type": "FeatureCollection", "features": [ {"type": "Feature", "properties": {"norad_id": 66805, "name": "STARLINK-36049", "group": "last-30-days", "lat": -39.18502172126522, "lon": 177.97907011609664, "alt_km": 328.9595438658498, "timestamp": "2025-12-14T20:40:30.516500+00:00", "meta": {"OBJECT_NAME": "STARLINK-36049", "OBJECT_ID": "2025-278Q", "EPOCH": "2025-12-14T06:00:02.999808", "MEAN_MOTION": 15.82863574, "ECCENTRICITY": 0.00019289, "INCLINATION": 42.9971, "RA_OF_ASC_NODE": 242.757, "ARG_OF_PERICENTER": 280.5001, "MEAN_ANOMALY": 125.1188, "EPHEMERIS_TYPE": 0, "CLASSIFICATION_TYPE": "U", "NORAD_CAT_ID": 66805, "ELEMENT_SET_NO": 999, "REV_AT_EPOCH": 320, "BSTAR": -0.0067622224, "MEAN_MOTION_DOT": -0.01304448, "MEAN_MOTION_DDOT": 0}, "tle": {"line1": "1 66805U 25278Q   25348.25003472 -.01304448  00000+0 -67622-2 0  9994", "line2": "2 66805  42.9971 242.7570 0001928 280.5001 125.1188 15.82863574  3202"}}, "geometry": {"type": "Point", "coordinates": [177.97907011609664, -39.18502172126522]}}, {"type": "Feature", "properties": {"norad_id": 66806, "name": "STARLINK-36069", "group": "last-30-days", "lat": -39.94042528392328, "lon": 175.03128736735124, "alt_km": 328.9056997752132, "timestamp": "2025-12-14T20:40:30.516512+00:00", "meta": {"OBJECT_NAME": "STARLINK-36069", "OBJECT_ID": "2025-278R", "EPOCH": "2025-12-14T06:00:02.999808", "MEAN_MOTION": 15.82895723, "ECCENTRICITY": 0.00018891, "INCLINATION": 42.9974, "RA_OF_ASC_NODE": 242.7636, "ARG_OF_PERICENTER": 280.4276, "MEAN_ANOMALY": 122.7112, "EPHEMERIS_TYPE": 0, "CLASSIFICATION_TYPE": "U", "NORAD_CAT_ID": 66806, "ELEMENT_SET_NO": 999, "REV_AT_EPOCH": 299, "BSTAR": -0.0067257074, "MEAN_MOTION_DOT": -0.01299982, "MEAN_MOTION_DDOT": 0}, "tle": {"line1": "1 66806U 25278R   25348.25003472 -.01299982  00000+0 -67257-2 0  9995", "line2": "2 66806  42.9974 242.7636 0001889 280.4276 122.7112 15.82895723  2994"}}, "geometry": {"type": "Point", "coordinates": [175.03128736735124, -39.94042528392328]}}, {"type": "Feature", "properties": {"norad_id": 66807, "name": "STARLINK-36000", "group": "last-30-days", "lat": -37.56545232612317, "lon": -176.64129730610142, "alt_km": 329.1484243072291, "timestamp": "2025-12-14T20:40:30.516523+00:00", "meta": {"OBJECT_NAME": "STARLINK-36000", "OBJECT_ID": "2025-278S", "EPOCH": "2025-12-14T06:00:02.999808", "MEAN_MOTION": 15.82831753, "ECCENTRICITY": 0.00018491, "INCLINATION": 42.9972, "RA_OF_ASC_NODE": 242.7456, "ARG_OF_PERICENTER": 275.2527, "MEAN_ANOMALY": 134.9887, "EPHEMERIS_TYPE": 0, "CLASSIFICATION_TYPE": "U", "NORAD_CAT_ID": 66807, "ELEMENT_SET_NO": 999, "REV_AT_EPOCH": 326, "BSTAR": -0.0068632041, "MEAN_MOTION_DOT": -0.01319711, "MEAN_MOTION_DDOT": 0}, "tle": {"line1": "1 66807U 25278S   25348.25003472 -.01319711  00000+0 -68632-2 0  9997", "line2": "2 66807  42.9972 242.7456 0001849 275.2527 134.9887 15.82831753  3268"}}, "geometry": {"type": "Point", "coordinates": [-176.64129730610142, -37.56545232612317]}}, {"type": "Feature", "properties": {"norad_id": 66808, "name": "STARLINK-36071", "group": "last-30-days", "lat": -36.69763991158453, "lon": -174.13094936228808, "alt_km": 329.12338750296203, "timestamp": "2025-12-14T20:40:30.516533+00:00", "meta": {"OBJECT_NAME": "STARLINK-36071", "OBJECT_ID": "2025-278T", "EPOCH": "2025-12-14T06:00:02.999808", "MEAN_MOTION": 15.82820449, "ECCENTRICITY": 0.00018723, "INCLINATION": 42.9972, "RA_OF_ASC_NODE": 242.7395, "ARG_OF_PERICENTER": 278.7888, "MEAN_ANOMALY": 133.6737, "EPHEMERIS_TYPE": 0, "CLASSIFICATION_TYPE": "U", "NORAD_CAT_ID": 66808, "ELEMENT_SET_NO": 999, "REV_AT_EPOCH": 320, "BSTAR": -0.0068903922, "MEAN_MOTION_DOT": -0.01323682, "MEAN_MOTION_DDOT": 0}, "tle": {"line1": "1 66808U 25278T   25348.25003472 -.01323682  00000+0 -68904-2 0  9992", "line2": "2 66808  42.9972 242.7395 0001872 278.7888 133.6737 15.82820449  3209"}}, "geometry": {"type": "Point", "coordinates": [-174.13094936228808, -36.69763991158453]}}, {"type": "Feature", "properties": {"norad_id": 66809, "name": "STARLINK-35979", "group": "last-30-days", "lat": -33.487791240880945, "lon": -166.26595724107452, "alt_km": 329.37301307210146, "timestamp": "2025-12-14T20:40:30.516543+00:00", "meta": {"OBJECT_NAME": "STARLINK-35979", "OBJECT_ID": "2025-278U", "EPOCH": "2025-12-14T06:00:02.999808", "MEAN_MOTION": 15.8273016, "ECCENTRICITY": 0.00018348, "INCLINATION": 42.9971, "RA_OF_ASC_NODE": 242.7208, "ARG_OF_PERICENTER": 281.8414, "MEAN_ANOMALY": 138.0756, "EPHEMERIS_TYPE": 0, "CLASSIFICATION_TYPE": "U", "NORAD_CAT_ID": 66809, "ELEMENT_SET_NO": 999, "REV_AT_EPOCH": 320, "BSTAR": -0.007085003, "MEAN_MOTION_DOT": -0.01351192, "MEAN_MOTION_DDOT": 0}, "tle": {"line1": "1 66809U 25278U   25348.25003472 -.01351192  00000+0 -70850-2 0  9993", "line2": "2 66809  42.9971 242.7208 0001834 281.8414 138.0756 15.82730160  3200"}}, "geometry": {"type": "Point", "coordinates": [-166.26595724107452, -33.487791240880945]}}, {"type": "Feature", "properties": {"norad_id": 66810, "name": "STARLINK-36046", "group": "last-30-days", "lat": -35.6690867773262, "lon": -171.39840581975375, "alt_km": 329.24062805737685, "timestamp": "2025-12-14T20:40:30.516553+00:00", "meta": {"OBJECT_NAME": "STARLINK-36046", "OBJECT_ID": "2025-278V", "EPOCH": "2025-12-14T06:00:02.999808", "MEAN_MOTION": 15.82786414, "ECCENTRICITY": 0.00018608, "INCLINATION": 42.9974, "RA_OF_ASC_NODE": 242.7336, "ARG_OF_PERICENTER": 277.4249, "MEAN_ANOMALY": 137.5655, "EPHEMERIS_TYPE": 0, "CLASSIFICATION_TYPE": "U", "NORAD_CAT_ID": 66810, "ELEMENT_SET_NO": 999, "REV_AT_EPOCH": 297, "BSTAR": -0.0069501294, "MEAN_MOTION_DOT": -0.01331821, "MEAN_MOTION_DDOT": 0}, "tle": {"line1": "1 66810U 25278V   25348.25003472 -.01331821  00000+0 -69501-2 0  9993", "line2": "2 66810  42.9974 242.7336 0001860 277.4249 137.5655 15.82786414  2971"}}, "geometry": {"type": "Point", "coordinates": [-171.39840581975375, -35.6690867773262]}}, {"type": "Feature", "properties": {"norad_id": 66811, "name": "STARLINK-36045", "group": "last-30-days", "lat": -34.570462803341954, "lon": -168.7157038612934, "alt_km": 329.3450871547002, "timestamp": "2025-12-14T20:40:30.516563+00:00", "meta": {"OBJECT_NAME": "STARLINK-36045", "OBJECT_ID": "2025-278W", "EPOCH": "2025-12-14T06:00:02.999808", "MEAN_MOTION": 15.82751398, "ECCENTRICITY": 0.00018449, "INCLINATION": 42.9974, "RA_OF_ASC_NODE": 242.7272, "ARG_OF_PERICENTER": 277.3825, "MEAN_ANOMALY": 140.1579, "EPHEMERIS_TYPE": 0, "CLASSIFICATION_TYPE": "U", "NORAD_CAT_ID": 66811, "ELEMENT_SET_NO": 999, "REV_AT_EPOCH": 320, "BSTAR": -0.0070050971, "MEAN_MOTION_DOT": -0.0133906, "MEAN_MOTION_DDOT": 0}, "tle": {"line1": "1 66811U 25278W   25348.25003472 -.01339060  00000+0 -70051-2 0  9999", "line2": "2 66811  42.9974 242.7272 0001844 277.3825 140.1579 15.82751398  3207"}}, "geometry": {"type": "Point", "coordinates": [-168.7157038612934, -34.570462803341954]}}, {"type": "Feature", "properties": {"norad_id": 66812, "name": "STARLINK-36054", "group": "last-30-days", "lat": -32.438956644279415, "lon": -164.0424535437833, "alt_km": 329.420625949072, "timestamp": "2025-12-14T20:40:30.516573+00:00", "meta": {"OBJECT_NAME": "STARLINK-36054", "OBJECT_ID": "2025-278X", "EPOCH": "2025-12-14T06:00:02.999808", "MEAN_MOTION": 15.82718578, "ECCENTRICITY": 0.00018036, "INCLINATION": 42.9974, "RA_OF_ASC_NODE": 242.7157, "ARG_OF_PERICENTER": 278.5976, "MEAN_ANOMALY": 143.4871, "EPHEMERIS_TYPE": 0, "CLASSIFICATION_TYPE": "U", "NORAD_CAT_ID": 66812, "ELEMENT_SET_NO": 999, "REV_AT_EPOCH": 320, "BSTAR": -0.007081552, "MEAN_MOTION_DOT": -0.01349942, "MEAN_MOTION_DDOT": 0}, "tle": {"line1": "1 66812U 25278X   25348.25003472 -.01349942  00000+0 -70816-2 0  9999", "line2": "2 66812  42.9974 242.7157 0001803 278.5976 143.4871 15.82718578  3209"}}, "geometry": {"type": "Point", "coordinates": [-164.0424535437833, -32.438956644279415]}}, {"type": "Feature", "properties": {"norad_id": 66813, "name": "STARLINK-36042", "group": "last-30-days", "lat": -31.401401274769054, "lon": -161.96875563712655, "alt_km": 329.40011218576, "timestamp": "2025-12-14T20:40:30.516585+00:00", "meta": {"OBJECT_NAME": "STARLINK-36042", "OBJECT_ID": "2025-278Y", "EPOCH": "2025-12-14T06:00:02.999808", "MEAN_MOTION": 15.82721098, "ECCENTRICITY": 0.00017756, "INCLINATION": 42.9974, "RA_OF_ASC_NODE": 242.7102, "ARG_OF_PERICENTER": 279.288, "MEAN_ANOMALY": 144.8472, "EPHEMERIS_TYPE": 0, "CLASSIFICATION_TYPE": "U", "NORAD_CAT_ID": 66813, "ELEMENT_SET_NO": 999, "REV_AT_EPOCH": 320, "BSTAR": -0.0071055076, "MEAN_MOTION_DOT": -0.01354049, "MEAN_MOTION_DDOT": 0}, "tle": {"line1": "1 66813U 25278Y   25348.25003472 -.01354049  00000+0 -71055-2 0  9990", "line2": "2 66813  42.9974 242.7102 0001775 279.2880 144.8472 15.82721098  3203"}}, "geometry": {"type": "Point", "coordinates": [-161.96875563712655, -31.401401274769054]}}, {"type": "Feature", "properties": {"norad_id": 66814, "name": "STARLINK-35984", "group": "last-30-days", "lat": -23.26784962033593, "lon": -148.55852569979146, "alt_km": 329.9554634241931, "timestamp": "2025-12-14T20:40:30.516598+00:00", "meta": {"OBJECT_NAME": "STARLINK-35984", "OBJECT_ID": "2025-278Z", "EPOCH": "2025-12-14T06:00:02.999808", "MEAN_MOTION": 15.82509309, "ECCENTRICITY": 0.00017392, "INCLINATION": 42.9973, "RA_OF_ASC_NODE": 242.672, "ARG_OF_PERICENTER": 274.59, "MEAN_ANOMALY": 164.5318, "EPHEMERIS_TYPE": 0, "CLASSIFICATION_TYPE": "U", "NORAD_CAT_ID": 66814, "ELEMENT_SET_NO": 999, "REV_AT_EPOCH": 329, "BSTAR": -0.0074662586, "MEAN_MOTION_DOT": -0.01429347, "MEAN_MOTION_DDOT": 0}, "tle": {"line1": "1 66814U 25278Z   25348.25003472 -.01429347  00000+0 -74663-2 0  9993", "line2": "2 66814  42.9973 242.6720 0001739 274.5900 164.5318 15.82509309  3295"}}, "geometry": {"type": "Point", "coordinates": [-148.55852569979146, -23.26784962033593]}}]}